{
    "links": {
        "self": "http://www.neowsapp.com/rest/v1/neo/3687150?api_key=iIulBulltgU6a56xZRHN4H3l9WmuAYTsLGpBGhQ2"
    },
    "id": "3687150",
    "neo_reference_id": "3687150",
    "name": "(2014 RT17)",
    "designation": "2014 RT17",
    "nasa_jpl_url": "http://ssd.jpl.nasa.gov/sbdb.cgi?sstr=3687150",
    "absolute_magnitude_h": 24.5,
    "estimated_diameter": {
        "kilometers": {
            "estimated_diameter_min": 0.0334622374,
            "estimated_diameter_max": 0.0748238376
        },
        "meters": {
            "estimated_diameter_min": 33.4622374455,
            "estimated_diameter_max": 74.8238376074
        },
        "miles": {
            "estimated_diameter_min": 0.0207924639,
            "estimated_diameter_max": 0.0464933628
        },
        "feet": {
            "estimated_diameter_min": 109.7842471007,
            "estimated_diameter_max": 245.4850393757
        }
    },
    "is_potentially_hazardous_asteroid": false,
    "close_approach_data": [
        {
            "close_approach_date": "1931-08-29",
            "close_approach_date_full": "1931-Aug-29 02:05",
            "epoch_date_close_approach": -1210024500000,
            "relative_velocity": {
                "kilometers_per_second": "14.3406489455",
                "kilometers_per_hour": "51626.3362038054",
                "miles_per_hour": "32078.5976261923"
            },
            "miss_distance": {
                "astronomical": "0.182045066",
                "lunar": "70.815530674",
                "kilometers": "27233554.11760942",
                "miles": "16922145.838353196"
            },
            "orbiting_body": "Earth"
        },
        {
            "close_approach_date": "2014-09-07",
            "close_approach_date_full": "2014-Sep-07 16:45",
            "epoch_date_close_approach": 1410108300000,
            "relative_velocity": {
                "kilometers_per_second": "19.9662554881",
                "kilometers_per_hour": "71878.5197571996",
                "miles_per_hour": "44662.5169013555"
            },
            "miss_distance": {
                "astronomical": "0.0095667794",
                "lunar": "3.7214771866",
                "kilometers": "1431169.820999878",
                "miles": "889287.6899511964"
            },
            "orbiting_body": "Earth"
        },
        {
            "close_approach_date": "2014-09-07",
            "close_approach_date_full": "2014-Sep-07 20:42",
            "epoch_date_close_approach": 1410122520000,
            "relative_velocity": {
                "kilometers_per_second": "19.8308191135",
                "kilometers_per_hour": "71390.9488086346",
                "miles_per_hour": "44359.5592750096"
            },
            "miss_distance": {
                "astronomical": "0.0092270939",
                "lunar": "3.5893395271",
                "kilometers": "1380353.593729993",
                "miles": "857711.9505121834"
            },
            "orbiting_body": "Moon"
        }
    ],
    "orbital_data": {
        "orbit_id": "6",
        "orbit_determination_date": "2017-04-06 08:38:42",
        "first_observation_date": "2014-09-12",
        "last_observation_date": "2014-09-19",
        "data_arc_in_days": 7,
        "observations_used": 30,
        "orbit_uncertainty": "9",
        "minimum_orbit_intersection": ".00234088",
        "jupiter_tisserand_invariant": "4.744",
        "epoch_osculation": "2456916.5",
        "eccentricity": ".608034613723144",
        "semi_major_axis": "1.318618659039721",
        "inclination": "2.738111049620398",
        "ascending_node_longitude": "347.1405503829423",
        "orbital_period": "553.0663711054327",
        "perihelion_distance": ".516852872042374",
        "perihelion_argument": "250.4619709401943",
        "aphelion_distance": "2.120384446037067",
        "perihelion_time": "2456854.422462172829",
        "mean_anomaly": "40.4072906713059",
        "mean_motion": ".6509164519991618",
        "equinox": "J2000",
        "orbit_class": {
            "orbit_class_type": "APO",
            "orbit_class_description": "Near-Earth asteroid orbits which cross the Earth’s orbit similar to that of 1862 Apollo",
            "orbit_class_range": "a (semi-major axis) > 1.0 AU; q (perihelion) < 1.017 AU"
        }
    },
    "is_sentry_object": false
}